[
    {
        "Altitude(m)": 612502.2478125928,
        "Argument of Periapsis(deg)": 0.0,
        "Eccentricity": 0.0,
        "Inclination(deg)": 60.0,
        "Latitude(deg)": -28.13614529211527,
        "Longitude(deg)": -52.85172398792989,
        "Mean Anomaly(deg)": -32.727300000000035,
        "RAAN(deg)": 65.0,
        "Satellite Name": "Test1 306",
        "Satellite Number": 306,
        "Semi-Major Axis(m)": 6980739.136638005,
        "Time(s)": 0
    },
    {
        "Altitude(m)": 612308.6949594928,
        "Argument of Periapsis(deg)": 0.00010418945913296404,
        "Eccentricity": 0.0,
        "Inclination(deg)": 60.0,
        "Latitude(deg)": -27.623200299234185,
        "Longitude(deg)": -52.49824985924808,
        "Mean Anomaly(deg)": -32.107193854538146,
        "RAAN(deg)": 64.99957995086025,
        "Satellite Name": "Test1 306",
        "Satellite Number": 306,
        "Semi-Major Axis(m)": 6980739.136638005,
        "Time(s)": 10
    }
]